DELTA 2 R/B(1)          
1 20453U 90008B   26199.57360950  .00081373  00000+0  48844-3 0  9995
2 20453  35.5998  24.8567 0057119  48.2970 312.2639 15.74164493946649
COSMOS 2058             
1 20465U 90010A   26199.50239689  .00001887  00000+0  10766-3 0  9992
2 20465  82.4674 278.4700 0008179 235.9842 124.0612 15.12167946962001
SL-14 R/B               
1 20466U 90010B   26199.25893804  .00000190  00000+0  20109-4 0  9999
2 20466  82.5037 144.7658 0018556 226.4156 133.5519 14.83664002947844
SL-14 R/B               
1 20511U 90018B   26199.19994318  .00000201  00000+0  22153-4 0  9997
2 20511  82.5215 101.1217 0016797  27.4687 332.7411 14.82235151941918
HST                     
1 20580U 90037B   26199.43354525  .00003110  00000+0  93233-4 0  9990
2 20580  28.4721 226.9603 0002184 135.0814 224.9959 15.31079978793364
SL-16 R/B               
1 20625U 90046B   26198.98163036  .00000294  00000+0  17603-3 0  9990
2 20625  70.9990  24.2710 0012336 109.4019 250.8439 14.15026474866821
COSMOS 2084             
1 20663U 90055A   26199.53089746  .00000683  00000+0  60159-4 0  9996
2 20663  62.7878 249.1001 0008502 321.4179  38.6313 15.06230026956027
SL-6 R/B(2)             
1 20666U 90055D   26199.36381894  .00000983  00000+0  83887-4 0  9995
2 20666  62.7806 169.2767 0045631   9.4180 350.7764 15.04095535957842
SL-8 R/B                
1 20775U 90078B   26199.29059578  .00007723  00000+0  21874-3 0  9990
2 20775  82.9035 133.5086 0343148 292.9981  63.5387 14.93627013828768
SL-8 R/B                
1 21088U 91006B   26199.65119216  .00000074  00000+0  59001-4 0  9992
2 21088  82.9404  72.6242 0023239  31.2011 346.6266 13.77509711782100
OKEAN-3                 
1 21397U 91039A   26199.31295503  .00001743  00000+0  11931-3 0  9991
2 21397  82.5147 210.1943 0012685 242.6649 117.3287 15.05445294884688
COSMOS 2151             
1 21422U 91042A   26199.60266373  .00000935  00000+0  71972-4 0  9993
2 21422  82.4983 317.3627 0011635 343.6530  16.4317 15.00518400882820
SL-14 R/B               
1 21423U 91042B   26199.21309688  .00000175  00000+0  19119-4 0  9999
2 21423  82.4931  97.8015 0017252 167.0493 193.1168 14.81918980872407
ERS-1                   
1 21574U 91050A   26199.30406798  .00000186  00000+0  73885-4 0  9997
2 21574  98.7796 220.7620 0032093 172.6051 187.5616 14.39534846834528
ARIANE 40 R/B           
1 21610U 91050F   26199.11434449  .00000103  00000+0  43222-4 0  9992
2 21610  98.1861 246.3240 0004039  54.9770 305.1799 14.42972778837805
INTERCOSMOS 25          
1 21819U 91086A   26199.39496272  .00000225  00000+0  41246-4 0  9993
2 21819  82.6003 230.9248 1484738 195.0207 160.1792 12.12241586512522
SL-8 R/B                
1 21876U 92008B   26199.34074559  .00000100  00000+0  86908-4 0  9992
2 21876  82.9275 170.6249 0035807 128.0622  29.8553 13.75984291727380
SL-8 R/B                
1 21938U 92020B   26199.61307429 -.00000004  00000+0 -20058-4 0  9999
2 21938  82.9278  56.5106 0027844 293.5686  79.0341 13.75549989719133
USA 81                  
1 21949U 92023A   26199.57036212  .00000083  00000+0  23418-4 0  9996
2 21949  85.0048  55.8894 0001835  65.0744 295.0639 14.32405457113525
COSMOS 2219             
1 22219U 92076A   26199.17349965 -.00000250  00000+0 -10649-3 0  9992
2 22219  71.0610 105.2980 0018439 353.0297   7.0566 14.14107606736822
SL-16 R/B               
1 22220U 92076B   26199.30624914 -.00000046  00000+0  80149-6 0  9996
2 22220  71.0002 273.2281 0015035 258.2455 168.0621 14.16878055740336
COSMOS 2221             
1 22236U 92080A   26199.29631770  .00000826  00000+0  70006-4 0  9998
2 22236  82.5048 153.9595 0015866 110.7403 249.5521 14.96608683800325
SL-16 R/B               
1 22285U 92093B   26199.12496118 -.00000261  00000+0 -10917-3 0  9992
2 22285  71.0215  90.4452 0002181 126.0636 234.0689 14.15464648731610
COSMOS 2228             
1 22286U 92094A   26199.62366697  .00000821  00000+0  67676-4 0  9992
2 22286  82.5186 111.9315 0016565 216.8006 143.2081 14.97681121795650
SL-16 R/B               
1 22566U 93016B   26199.32034804  .00000291  00000+0  17397-3 0  9992
2 22566  71.0087 300.8169 0008701 132.3778 227.8083 14.15314439720655
COSMOS 2242             
1 22626U 93024A   26199.26334944  .00000853  00000+0  71732-4 0  9997
2 22626  82.5200 141.8116 0014843 221.4152 138.5947 14.96989760799928
SL-16 R/B               
1 22803U 93059B   26199.12174144  .00000066  00000+0  56509-4 0  9992
2 22803  70.9901  96.0693 0016819   4.2254 355.9008 14.17249470698011
ARIANE 40 R/B           
1 22830U 93061H   26199.20898560  .00000062  00000+0  38370-4 0  9991
2 22830  98.4804 265.4194 0009535 255.7525 104.2601 14.32919189712791
COSMOS 2278             
1 23087U 94023A   26199.57711407  .00000126  00000+0  90670-4 0  9991
2 23087  71.0518 261.2500 0009461 200.5197 159.5547 14.14393985663316
SL-16 R/B               
1 23088U 94023B   26199.63554197  .00000268  00000+0  16270-3 0  9990
2 23088  70.9989 155.8867 0001328 114.5744 245.5518 14.15026092664618
SL-16 R/B               
1 23343U 94074B   26199.54533031  .00000159  00000+0  27855-4 0  9995
2 23343  97.6986 224.9583 0007406 144.5054   8.1125 14.79525915706597
SL-16 R/B               
1 23405U 94077B   26199.07142117  .00000089  00000+0  69777-4 0  9997
2 23405  70.9821  78.1883 0004118 301.2180  58.8538 14.15574519634683
ARIANE 40+ R/B          
1 23561U 95021B   26199.18004752  .00000111  00000+0  49199-4 0  9996
2 23561  98.4399 268.8052 0007956 108.9553 276.7248 14.39848539638029
SL-16 R/B               
1 23705U 95058B   26199.57934876  .00000281  00000+0  16783-3 0  9998
2 23705  71.0207 265.4502 0014646 278.4397  81.5065 14.15510629586379
SL-16 R/B               
1 24298U 96051B   26199.26269021  .00000144  00000+0  10461-3 0  9994
2 24298  70.7644 258.8856 0018002 294.1271  65.7966 14.12457729540082
ORBVIEW 2 (SEASTAR)     
1 24883U 97037A   26199.45414649  .00000086  00000+0  45971-4 0  9998
2 24883  98.8717   7.3443 0002978  54.3716 305.7745 14.35567659527231
SL-16 R/B               
1 25400U 98043G   26199.30449794  .00000006  00000+0  21644-4 0  9998
2 25400  98.8380 153.7345 0009881   2.6266 357.4963 14.26073003457600
SL-16 R/B               
1 25407U 98045B   26199.31415702 -.00000048  00000+0 -34107-6 0  9998
2 25407  71.0104 266.8694 0008015 201.8872 158.1910 14.16204898445591
ISS (ZARYA)             
1 25544U 98067A   26199.34696572  .00003718  00000+0  75524-4 0  9994
2 25544  51.6316 145.8895 0006803 309.9700  50.0690 15.49039991576580
CZ-4B R/B               
1 25732U 99025C   26199.62257780  .00000003  00000+0  22516-4 0  9990
2 25732  98.6470 240.6675 0036470 329.7399 195.3137 14.18288059406721
OKEAN-O                 
1 25860U 99039A   26199.64012923  .00000222  00000+0  35843-4 0  9997
2 25860  97.9298 258.0741 0000888  94.7843 265.3471 14.80499452453762
SL-16 R/B               
1 25861U 99039B   26199.63273824  .00000185  00000+0  30238-4 0  9997
2 25861  97.9820 258.4033 0014588 187.0138 173.0873 14.81872564456255
DELTA 2 R/B             
1 25876U 99041E   26199.24831731  .00000891  00000+0  18226-3 0  9996
2 25876  51.7611 139.6966 0501442  13.7707 347.6344 14.12092267381470
HELIOS 1B               
1 25977U 99064A   26199.24497705  .00000575  00000+0  68857-4 0  9997
2 25977  98.1580 105.2802 0001777  51.4101 308.7273 14.88079116704674
TERRA                   
1 25994U 99068A   26199.60659832  .00000151  00000+0  39702-4 0  9998
2 25994  97.9439 247.9044 0003536 116.1345  44.6257 14.61125153414196
SL-16 R/B               
1 26070U 00006B   26199.36339125  .00000056  00000+0  52811-4 0  9991
2 26070  71.0003 183.0713 0017318 335.6413  24.3890 14.15838129367055
TITAN 4B R/B            
1 26474U 00047B   26199.58415351  .00001159  00000+0  77322-4 0  9993
2 26474  67.9873  32.1857 0045741 255.3928 104.2148 15.10342091412672
ENVISAT                 
1 27386U 02009A   26199.34565127  .00000023  00000+0  21205-4 0  9995
2 27386  98.3848 149.9720 0001313  83.0941  64.7032 14.39071131277966
IDEFIX & ARIANE 42P R/B 
1 27422U 02021B   26199.59216403  .00000075  00000+0  45002-4 0  9995
2 27422  98.5941 136.7359 0012119 156.5813 203.5925 14.31094524262742
AQUA                    
1 27424U 02022A   26199.60004448  .00000309  00000+0  71293-4 0  9995
2 27424  98.4299 169.5150 0001252 101.5604 313.3072 14.62131087287869
CZ-4B R/B               
1 27432U 02024C   26199.59516795 -.00000011  00000+0  17415-4 0  9994
2 27432  98.8683 252.2084 0050293  12.3885 152.2521 14.14568458247749
MIDORI II (ADEOS-II)    
1 27597U 02056A   26199.35859893  .00000090  00000+0  53179-4 0  9997
2 27597  98.7896 158.8867 0001351  37.2300 322.8975 14.29363881228965
H-2A R/B                
1 27601U 02056E   26199.12558810  .00000120  00000+0  56372-4 0  9995
2 27601  98.3330 154.6753 0071028 132.2936 238.6642 14.33834808232807
CZ-4B R/B               
1 28059U 03049C   26199.44989816  .00000112  00000+0  37413-4 0  9991
2 28059  98.6912 199.5432 0047864 191.2459 168.7671 14.55117301205612
CZ-2C R/B               
1 28222U 04012C   26199.21114006  .00105020  00000+0  42634-3 0  9994
2 28222  97.7049 278.6452 0011019 183.0789 177.0415 15.85865778224807
SL-16 R/B               
1 28353U 04021B   26199.62807978 -.00000111  00000+0 -33092-4 0  9997
2 28353  71.0030 317.7044 0006195 222.1236 137.9411 14.14616376141358
CZ-4B R/B               
1 28415U 04035C   26199.05074265  .00003907  00000+0  13132-3 0  9999
2 28415  97.3352 231.7827 0029454 222.0369 137.8613 15.31014525199846
CZ-2C R/B               
1 28480U 04046B   26199.46368344  .00000068  00000+0  39828-4 0  9998
2 28480  98.1912 106.2849 0140301 127.7807 233.6179 14.27033861127157
ARIANE 5 R/B            
1 28499U 04049H   26199.45226317  .00000248  00000+0  34303-4 0  9996
2 28499  98.2744  12.9185 0082537 287.5511  71.6698 14.85480833165203
